ONEWEB-0102             
1 47258U 20100A   25327.67562613 -.00000394  00000+0 -11304-2 0  9992
2 47258  87.8954  31.5139 0001811  95.8397 264.2938 13.12442889237775
ONEWEB-0109             
1 47259U 20100B   25327.68373534 -.00000243  00000+0 -70997-3 0  9993
2 47259  87.8961  31.4796 0001859  98.8795 261.2544 13.12442928237605
ONEWEB-0110             
1 47260U 20100C   25327.70968941  .00000438  00000+0  11825-2 0  9998
2 47260  87.8960  31.4583 0002137 102.2633 257.8735 13.12442607237776
ONEWEB-0111             
1 47261U 20100D   25327.74050705 -.00000319  00000+0 -92245-3 0  9999
2 47261  87.8963  31.4702 0001850 100.5719 259.5617 13.12441172237617
ONEWEB-0114             
1 47262U 20100E   25327.69508748  .00000134  00000+0  33575-3 0  9993
2 47262  87.8963  31.4735 0001676  93.7837 266.3483 13.12443686237567
ONEWEB-0117             
1 47263U 20100F   25327.68698171 -.00000172  00000+0 -51299-3 0  9990
2 47263  87.8960  31.4727 0001864 101.4874 258.6463 13.12443975237577
ONEWEB-0118             
1 47264U 20100G   25327.71942689  .00000248  00000+0  65538-3 0  9994
2 47264  87.8963  31.4658 0001504 100.6680 259.4618 13.12441581237775
ONEWEB-0119             
1 47265U 20100H   25327.74699191 -.00000401  00000+0 -11497-2 0  9992
2 47265  87.8957  31.4962 0001887 101.5622 258.5718 13.12442557237750
